CCSDS_OMM_VERS = 2.0
CREATION_DATE  = 
ORIGINATOR     = 

OBJECT_NAME    = STARLINK-36708
OBJECT_ID      = 2026-025W
CENTER_NAME    = EARTH
REF_FRAME      = TEME
TIME_SYSTEM    = UTC
MEAN_ELEMENT_THEORY = SGP/SGP4

EPOCH          = 2026-03-08T22:00:01.999584
MEAN_MOTION    = 15.55074821
ECCENTRICITY   = .00016491
INCLINATION    = 97.2843
RA_OF_ASC_NODE = 179.5125
ARG_OF_PERICENTER = 77.3667
MEAN_ANOMALY   = 225.7847

EPHEMERIS_TYPE = 0
CLASSIFICATION_TYPE = U
NORAD_CAT_ID   = 67713
ELEMENT_SET_NO = 999
REV_AT_EPOCH   = 579
BSTAR          = -.36223539E-1
MEAN_MOTION_DOT = -.2157665E-1
MEAN_MOTION_DDOT = 0

CCSDS_OMM_VERS = 2.0
CREATION_DATE  = 
ORIGINATOR     = 

OBJECT_NAME    = STARLINK-36702
OBJECT_ID      = 2026-025X
CENTER_NAME    = EARTH
REF_FRAME      = TEME
TIME_SYSTEM    = UTC
MEAN_ELEMENT_THEORY = SGP/SGP4

EPOCH          = 2026-03-08T22:00:01.999584
MEAN_MOTION    = 15.75233770
ECCENTRICITY   = .00013859
INCLINATION    = 97.2844
RA_OF_ASC_NODE = 179.5916
ARG_OF_PERICENTER = 75.0050
MEAN_ANOMALY   = 49.9101

EPHEMERIS_TYPE = 0
CLASSIFICATION_TYPE = U
NORAD_CAT_ID   = 67714
ELEMENT_SET_NO = 999
REV_AT_EPOCH   = 552
BSTAR          = -.48701648E-3
MEAN_MOTION_DOT = -.72297E-3
MEAN_MOTION_DDOT = 0

CCSDS_OMM_VERS = 2.0
CREATION_DATE  = 
ORIGINATOR     = 

OBJECT_NAME    = STARLINK-36718
OBJECT_ID      = 2026-025Y
CENTER_NAME    = EARTH
REF_FRAME      = TEME
TIME_SYSTEM    = UTC
MEAN_ELEMENT_THEORY = SGP/SGP4

EPOCH          = 2026-03-08T21:02:25.044000
MEAN_MOTION    = 15.79915770
ECCENTRICITY   = .00069694
INCLINATION    = 97.2853
RA_OF_ASC_NODE = 179.5904
ARG_OF_PERICENTER = 36.5869
MEAN_ANOMALY   = 323.5873

EPHEMERIS_TYPE = 0
CLASSIFICATION_TYPE = U
NORAD_CAT_ID   = 67715
ELEMENT_SET_NO = 999
REV_AT_EPOCH   = 582
BSTAR          = -.35118358E-2
MEAN_MOTION_DOT = -.604673E-2
MEAN_MOTION_DDOT = 0

CCSDS_OMM_VERS = 2.0
CREATION_DATE  = 
ORIGINATOR     = 

OBJECT_NAME    = STARLINK-36715
OBJECT_ID      = 2026-025Z
CENTER_NAME    = EARTH
REF_FRAME      = TEME
TIME_SYSTEM    = UTC
MEAN_ELEMENT_THEORY = SGP/SGP4

EPOCH          = 2026-03-08T19:34:02.526528
MEAN_MOTION    = 15.81134243
ECCENTRICITY   = .00030831
INCLINATION    = 97.2861
RA_OF_ASC_NODE = 179.5211
ARG_OF_PERICENTER = 30.3390
MEAN_ANOMALY   = 329.8057

EPHEMERIS_TYPE = 0
CLASSIFICATION_TYPE = U
NORAD_CAT_ID   = 67716
ELEMENT_SET_NO = 999
REV_AT_EPOCH   = 581
BSTAR          = .37001978E-2
MEAN_MOTION_DOT = .787648E-2
MEAN_MOTION_DDOT = 0

CCSDS_OMM_VERS = 2.0
CREATION_DATE  = 
ORIGINATOR     = 

OBJECT_NAME    = STARLINK-36385
OBJECT_ID      = 2026-025AA
CENTER_NAME    = EARTH
REF_FRAME      = TEME
TIME_SYSTEM    = UTC
MEAN_ELEMENT_THEORY = SGP/SGP4

EPOCH          = 2026-03-08T19:43:01.651296
MEAN_MOTION    = 15.80902912
ECCENTRICITY   = .0001714
INCLINATION    = 97.2845
RA_OF_ASC_NODE = 179.5125
ARG_OF_PERICENTER = 97.0518
MEAN_ANOMALY   = 263.0945

EPHEMERIS_TYPE = 0
CLASSIFICATION_TYPE = U
NORAD_CAT_ID   = 67717
ELEMENT_SET_NO = 999
REV_AT_EPOCH   = 581
BSTAR          = .13989162E-2
MEAN_MOTION_DOT = .277621E-2
MEAN_MOTION_DDOT = 0

CCSDS_OMM_VERS = 2.0
CREATION_DATE  = 
ORIGINATOR     = 

OBJECT_NAME    = CZ-2F DEB
OBJECT_ID      = 2026-024E
CENTER_NAME    = EARTH
REF_FRAME      = TEME
TIME_SYSTEM    = UTC
MEAN_ELEMENT_THEORY = SGP/SGP4

EPOCH          = 2026-03-08T21:20:14.233632
MEAN_MOTION    = 15.25671903
ECCENTRICITY   = .02313395
INCLINATION    = 50.3209
RA_OF_ASC_NODE = 22.6213
ARG_OF_PERICENTER = 276.7687
MEAN_ANOMALY   = 80.7000

EPHEMERIS_TYPE = 0
CLASSIFICATION_TYPE = U
NORAD_CAT_ID   = 67718
ELEMENT_SET_NO = 999
REV_AT_EPOCH   = 451
BSTAR          = .53397406E-2
MEAN_MOTION_DOT = .314342E-2
MEAN_MOTION_DDOT = 0

CCSDS_OMM_VERS = 2.0
CREATION_DATE  = 
ORIGINATOR     = 

OBJECT_NAME    = CZ-2F DEB
OBJECT_ID      = 2026-024F
CENTER_NAME    = EARTH
REF_FRAME      = TEME
TIME_SYSTEM    = UTC
MEAN_ELEMENT_THEORY = SGP/SGP4

EPOCH          = 2026-03-08T08:26:55.279680
MEAN_MOTION    = 15.03366898
ECCENTRICITY   = .03115871
INCLINATION    = 49.7931
RA_OF_ASC_NODE = 28.3939
ARG_OF_PERICENTER = 266.0764
MEAN_ANOMALY   = 90.4511

EPHEMERIS_TYPE = 0
CLASSIFICATION_TYPE = U
NORAD_CAT_ID   = 67719
ELEMENT_SET_NO = 999
REV_AT_EPOCH   = 404
BSTAR          = .49281567E-2
MEAN_MOTION_DOT = .20851E-2
MEAN_MOTION_DDOT = 0

CCSDS_OMM_VERS = 2.0
CREATION_DATE  = 
ORIGINATOR     = 

OBJECT_NAME    = CZ-2F DEB
OBJECT_ID      = 2026-024G
CENTER_NAME    = EARTH
REF_FRAME      = TEME
TIME_SYSTEM    = UTC
MEAN_ELEMENT_THEORY = SGP/SGP4

EPOCH          = 2026-03-08T14:29:31.013088
MEAN_MOTION    = 15.00669352
ECCENTRICITY   = .03223986
INCLINATION    = 49.8327
RA_OF_ASC_NODE = 27.8237
ARG_OF_PERICENTER = 263.1445
MEAN_ANOMALY   = 93.2725

EPHEMERIS_TYPE = 0
CLASSIFICATION_TYPE = U
NORAD_CAT_ID   = 67720
ELEMENT_SET_NO = 999
REV_AT_EPOCH   = 439
BSTAR          = .418345E-2
MEAN_MOTION_DOT = .171623E-2
MEAN_MOTION_DDOT = 0

CCSDS_OMM_VERS = 2.0
CREATION_DATE  = 
ORIGINATOR     = 

OBJECT_NAME    = STARLINK-36772
OBJECT_ID      = 2026-026A
CENTER_NAME    = EARTH
REF_FRAME      = TEME
TIME_SYSTEM    = UTC
MEAN_ELEMENT_THEORY = SGP/SGP4

EPOCH          = 2026-03-08T22:00:01.999584
MEAN_MOTION    = 15.49454076
ECCENTRICITY   = .00018954
INCLINATION    = 97.2848
RA_OF_ASC_NODE = 122.4251
ARG_OF_PERICENTER = 70.0248
MEAN_ANOMALY   = 169.5040

EPHEMERIS_TYPE = 0
CLASSIFICATION_TYPE = U
NORAD_CAT_ID   = 67721
ELEMENT_SET_NO = 999
REV_AT_EPOCH   = 519
BSTAR          = -.14536547E-1
MEAN_MOTION_DOT = -.737722E-2
MEAN_MOTION_DDOT = 0

CCSDS_OMM_VERS = 2.0
CREATION_DATE  = 
ORIGINATOR     = 

OBJECT_NAME    = STARLINK-36796
OBJECT_ID      = 2026-026B
CENTER_NAME    = EARTH
REF_FRAME      = TEME
TIME_SYSTEM    = UTC
MEAN_ELEMENT_THEORY = SGP/SGP4

EPOCH          = 2026-03-08T22:00:01.999584
MEAN_MOTION    = 15.49363205
ECCENTRICITY   = .00018581
INCLINATION    = 97.2846
RA_OF_ASC_NODE = 122.4182
ARG_OF_PERICENTER = 75.3279
MEAN_ANOMALY   = 148.3889

EPHEMERIS_TYPE = 0
CLASSIFICATION_TYPE = U
NORAD_CAT_ID   = 67722
ELEMENT_SET_NO = 999
REV_AT_EPOCH   = 519
BSTAR          = -.37291371E-1
MEAN_MOTION_DOT = -.1810354E-1
MEAN_MOTION_DDOT = 0

CCSDS_OMM_VERS = 2.0
CREATION_DATE  = 
ORIGINATOR     = 

OBJECT_NAME    = STARLINK-36369
OBJECT_ID      = 2026-026C
CENTER_NAME    = EARTH
REF_FRAME      = TEME
TIME_SYSTEM    = UTC
MEAN_ELEMENT_THEORY = SGP/SGP4

EPOCH          = 2026-03-08T22:00:01.999584
MEAN_MOTION    = 15.49109338
ECCENTRICITY   = .00020814
INCLINATION    = 97.2847
RA_OF_ASC_NODE = 122.4241
ARG_OF_PERICENTER = 73.6601
MEAN_ANOMALY   = 166.7770

EPHEMERIS_TYPE = 0
CLASSIFICATION_TYPE = U
NORAD_CAT_ID   = 67723
ELEMENT_SET_NO = 999
REV_AT_EPOCH   = 519
BSTAR          = .21017083E-2
MEAN_MOTION_DOT = .115589E-2
MEAN_MOTION_DDOT = 0

CCSDS_OMM_VERS = 2.0
CREATION_DATE  = 
ORIGINATOR     = 

OBJECT_NAME    = STARLINK-36752
OBJECT_ID      = 2026-026D
CENTER_NAME    = EARTH
REF_FRAME      = TEME
TIME_SYSTEM    = UTC
MEAN_ELEMENT_THEORY = SGP/SGP4

EPOCH          = 2026-03-08T22:00:01.999584
MEAN_MOTION    = 15.50161713
ECCENTRICITY   = .00017608
INCLINATION    = 97.2837
RA_OF_ASC_NODE = 122.4439
ARG_OF_PERICENTER = 78.6867
MEAN_ANOMALY   = 203.7537

EPHEMERIS_TYPE = 0
CLASSIFICATION_TYPE = U
NORAD_CAT_ID   = 67724
ELEMENT_SET_NO = 999
REV_AT_EPOCH   = 519
BSTAR          = -.27613885E-1
MEAN_MOTION_DOT = -.1395182E-1
MEAN_MOTION_DDOT = 0

