STARLINK-36708          
1 67713U 26025W   26067.91668981 -.02157665  00000+0 -36224-1 0  9999
2 67713  97.2843 179.5125 0001649  77.3667 225.7847 15.55074821  5799
STARLINK-36702          
1 67714U 26025X   26067.91668981 -.00072297  00000+0 -48702-3 0  9991
2 67714  97.2844 179.5916 0001385  75.0050  49.9101 15.75233770  5529
STARLINK-36718          
1 67715U 26025Y   26067.87667875 -.00604673  00000+0 -35118-2 0  9993
2 67715  97.2853 179.5904 0006969  36.5869 323.5873 15.79915770  5821
STARLINK-36715          
1 67716U 26025Z   26067.81530702  .00787648  00000+0  37002-2 0  9992
2 67716  97.2861 179.5211 0003083  30.3390 329.8057 15.81134243  5810
STARLINK-36385          
1 67717U 26025AA  26067.82154689  .00277621  00000+0  13989-2 0  9993
2 67717  97.2845 179.5125 0001714  97.0518 263.0945 15.80902912  5818
CZ-2F DEB               
1 67718U 26024E   26067.88905363  .00314342  00000+0  53397-2 0  9991
2 67718  50.3209  22.6213 0231339 276.7687  80.7000 15.25671903  4514
CZ-2F DEB               
1 67719U 26024F   26067.35202870  .00208510  00000+0  49282-2 0  9994
2 67719  49.7931  28.3939 0311587 266.0764  90.4511 15.03366898  4042
CZ-2F DEB               
1 67720U 26024G   26067.60383117  .00171623  00000+0  41834-2 0  9997
2 67720  49.8327  27.8237 0322398 263.1445  93.2725 15.00669352  4399
STARLINK-36772          
1 67721U 26026A   26067.91668981 -.00737722  00000+0 -14537-1 0  9998
2 67721  97.2848 122.4251 0001895  70.0248 169.5040 15.49454076  5199
STARLINK-36796          
1 67722U 26026B   26067.91668981 -.01810354  00000+0 -37291-1 0  9995
2 67722  97.2846 122.4182 0001858  75.3279 148.3889 15.49363205  5191
STARLINK-36369          
1 67723U 26026C   26067.91668981  .00115589  00000+0  21017-2 0  9991
2 67723  97.2847 122.4241 0002081  73.6601 166.7770 15.49109338  5196
STARLINK-36752          
1 67724U 26026D   26067.91668981 -.01395182  00000+0 -27614-1 0  9992
2 67724  97.2837 122.4439 0001760  78.6867 203.7537 15.50161713  5197
